STARLINK-3049           
1 49436U 21104AE  25117.60510437 -.00000953  00000+0 -41812-4 0  9994
2 49436  53.2159 188.0788 0001121  95.3467 264.7653 15.08841321191199
STARLINK-3130           
1 49437U 21104AF  25117.46526019 -.00001953  00000+0 -10463-3 0  9990
2 49437  53.2163 188.7075 0001465  95.9988 264.1171 15.08851231191174
STARLINK-3044           
1 49438U 21104AG  25117.45517821  .00000342  00000+0  39607-4 0  9992
2 49438  53.2160 188.6838 0001407  88.5984 271.5170 15.08836116191174
STARLINK-3105           
1 49440U 21104AJ  25117.45790847  .00002526  00000+0  17675-3 0  9992
2 49440  53.2170 188.7383 0001504  83.4647 276.6516 15.08840967191171
STARLINK-3128           
1 49441U 21104AK  25117.43951499  .00014070  00000+0  90000-3 0  9993
2 49441  53.2154 188.8226 0001438  96.4931 263.6225 15.08854406191173
STARLINK-3098           
1 49442U 21104AL  25117.52046171 -.00000980  00000+0 -43464-4 0  9996
2 49442  53.2170 188.4571 0001343  89.4358 270.6788 15.08848206191185
STARLINK-3136           
1 49443U 21104AM  25117.50206264  .00000582  00000+0  54648-4 0  9998
2 49443  53.2158 188.5426 0001527  93.2669 266.8498 15.08840172191183
STARLINK-3126           
1 49444U 21104AN  25117.51773830 -.00000546  00000+0 -16203-4 0  9995
2 49444  53.2161 188.4787 0001363  92.5877 267.5271 15.08848262191183
STARLINK-3122           
1 49445U 21104AP  25117.56839264  .00000329  00000+0  38779-4 0  9994
2 49445  53.2166 198.6371 0001675  93.9846 266.1338 15.08838099191049
STARLINK-3099           
1 49446U 21104AQ  25117.51311217 -.00000365  00000+0 -48661-5 0  9997
2 49446  53.2173 188.4887 0001562  84.3684 275.7487 15.08838197191181
STARLINK-3115           
1 49447U 21104AR  25117.45699080  .00001832  00000+0  13324-3 0  9992
2 49447  53.2165 198.7444 0001148  85.3119 274.8004 15.08823671191030
STARLINK-3137           
1 49449U 21104AT  25117.51954721 -.00000724  00000+0 -27393-4 0  9990
2 49449  53.2169 198.4720 0001435  81.7215 278.3939 15.08842144191049
STARLINK-3127           
1 49450U 21104AU  25117.59681233  .00002501  00000+0  17510-3 0  9997
2 49450  53.2182 198.1549 0001393  90.1671 269.9480 15.08856143191316
STARLINK-3125           
1 49451U 21104AV  25117.58210123  .00001593  00000+0  11816-3 0  9996
2 49451  53.2154 198.1832 0001326  92.5342 267.5802 15.08844531191059
STARLINK-3150           
1 49452U 21104AW  25117.57203012  .00000599  00000+0  55729-4 0  9992
2 49452  53.2163 198.2661 0001354  92.3251 267.7896 15.08836804191058
STARLINK-3129           
1 49453U 21104AX  25117.58306261 -.00004705  00000+0 -27780-3 0  9994
2 49453  53.2167 198.2647 0001429  90.0532 270.0623 15.08831326191056
STARLINK-3160           
1 49454U 21104AY  25117.57841666  .00001148  00000+0  90274-4 0  9992
2 49454  53.2169 198.1985 0001646  84.2900 275.8279 15.08820718191051
STARLINK-3145           
1 49455U 21104AZ  25117.56371187  .00001268  00000+0  97750-4 0  9997
2 49455  53.2183 198.2638 0001725  93.8386 266.2803 15.08832310191054
STARLINK-3124           
1 49456U 21104BA  25117.57570831 -.00001687  00000+0 -87925-4 0  9996
2 49456  53.2169 198.2589 0001339  84.9835 275.1310 15.08842882191052
STARLINK-3132           
1 49457U 21104BB  25117.49474748  .00001654  00000+0  12199-3 0  9990
2 49457  53.2160 198.5860 0001386  75.1927 284.9218 15.08837614191046
STARLINK-3156           
1 49458U 21104BC  25117.56738969  .00002486  00000+0  17424-3 0  9997
2 49458  53.2164 198.2480 0001426  89.8374 270.2782 15.08842134191057
STARLINK-3141           
1 49459U 21104BD  25117.62258335  .00003776  00000+0  25515-3 0  9992
2 49459  53.2170 198.0033 0001704  88.9050 271.2137 15.08850361191064
STARLINK-3140           
1 49460U 21104BE  25117.61890757  .00000424  00000+0  44758-4 0  9991
2 49460  53.2182 198.0154 0001627  94.5616 265.5562 15.08836429191054
STARLINK-3219           
1 49724U 21115A   25117.35673025  .00000574  00000+0  54167-4 0  9995
2 49724  53.2167 129.4128 0001508  85.6088 274.5076 15.08840100187776
STARLINK-3218           
1 49725U 21115B   25117.31255718 -.00000121  00000+0  10510-4 0  9990
2 49725  53.2168 129.4952 0001435  93.4149 266.7007 15.08838125187778
STARLINK-3242           
1 49727U 21115D   25117.33371633 -.00000090  00000+0  12456-4 0  9995
2 49727  53.2168 139.2967 0001416  78.5292 281.5859 15.08839415187635
STARLINK-3240           
1 49728U 21115E   25117.33738199  .00000422  00000+0  44610-4 0  9995
2 49728  53.2165 139.2760 0001399  95.6277 264.4875 15.08840496187636
STARLINK-3251           
1 49729U 21115F   25117.32999097 -.00001013  00000+0 -45560-4 0  9995
2 49729  53.2164 139.1967 0001478  82.2673 277.8487 15.08832737187630
STARLINK-3249           
1 49730U 21115G   25117.49933624  .00001474  00000+0  11073-3 0  9999
2 49730  53.2166 138.7470 0001552  95.7545 264.3624 15.08829765187651
STARLINK-3246           
1 49732U 21115J   25117.37420223  .00000500  00000+0  49517-4 0  9998
2 49732  53.2153 139.2714 0001372  77.0450 283.0695 15.08845431187636
STARLINK-3252           
1 49733U 21115K   25117.48459961 -.00001928  00000+0 -10313-3 0  9990
2 49733  53.2157 138.6187 0001214  95.4145 264.6985 15.08822083187655
STARLINK-3238           
1 49734U 21115L   25117.30518421  .00000686  00000+0  61205-4 0  9994
2 49734  53.2162 129.4490 0001447  88.6024 271.5134 15.08842631187772
STARLINK-3113           
1 49735U 21115M   25117.34472918  .00001892  00000+0  13687-3 0  9999
2 49735  53.2148 139.1305 0001109  90.2622 269.8497 15.08846700187636
STARLINK-3148           
1 49736U 21115N   25117.30149546  .00000634  00000+0  57914-4 0  9999
2 49736  53.2167 129.3252 0001573  86.7244 273.3928 15.08829605187774
STARLINK-3225           
1 49737U 21115P   25117.30886143  .00000700  00000+0  62045-4 0  9996
2 49737  53.2176 129.4044 0001373 105.1412 254.9732 15.08839209187775
STARLINK-3143           
1 49738U 21115Q   25117.33560834  .00001113  00000+0  88039-4 0  9996
2 49738  53.2162 129.4937 0001461  94.2609 265.8550 15.08834627187774
STARLINK-3155           
1 49739U 21115R   25117.36312401  .00000714  00000+0  62910-4 0  9991
2 49739  53.2167 139.1650 0001157  89.4207 270.6918 15.08843625187637
STARLINK-3226           
1 49740U 21115S   25117.32453340 -.00003020  00000+0 -17167-3 0  9995
2 49740  53.2162 129.3061 0001355  97.1481 262.9665 15.08858335187773
STARLINK-3244           
1 49741U 21115T   25117.32086017  .00000532  00000+0  51507-4 0  9999
2 49741  53.2158 129.3636 0001420  98.9372 261.1781 15.08833481187773
STARLINK-3202           
1 49742U 21115U   25117.33462689  .00000141  00000+0  26964-4 0  9999
2 49742  53.2163 129.2915 0001412  98.3347 261.7805 15.08836376187775
STARLINK-3239           
1 49743U 21115V   25117.31717615 -.00000217  00000+0  44477-5 0  9995
2 49743  53.2156 129.3023 0001444  88.1057 272.0101 15.08846506187779
STARLINK-3231           
1 49744U 21115W   25117.33189300  .00000000  00000+0  18117-4 0  9992
2 49744  53.2162 129.1979 0001192  89.9011 270.2118 15.08834771187773
STARLINK-3241           
1 49745U 21115X   25117.32820941 -.00000614  00000+0 -20469-4 0  9991
2 49745  53.2167 129.2917 0001820 130.7506 229.3644 15.08830061187771
STARLINK-3233           
1 49746U 21115Y   25117.34934399  .00001152  00000+0  90467-4 0  9998
2 49746  53.2166 129.2264 0001418  94.6446 265.4709 15.08835490187774
STARLINK-3247           
1 49747U 21115Z   25117.33830147 -.00000704  00000+0 -26134-4 0  9998
2 49747  53.2170 129.2763 0001444  77.8362 282.2791 15.08832866187775
STARLINK-3248           
1 49748U 21115AA  25117.24993291 -.00001002  00000+0 -44844-4 0  9999
2 49748  53.2164 129.2390 0001328 118.0840 242.0287 15.08851441187779
STARLINK-3250           
1 49749U 21115AB  25117.30249477  .00000864  00000+0  72361-4 0  9995
2 49749  53.2147 129.6764 0001725 113.5765 246.5408 15.08854788187767
STARLINK-3236           
1 49750U 21115AC  25117.29878169 -.00000392  00000+0 -65696-5 0  9993
2 49750  53.2165 129.4629 0001277  86.6992 273.4146 15.08840174187774
STARLINK-3229           
1 49751U 21115AD  25117.34564489  .00001720  00000+0  12608-3 0  9994
2 49751  53.2168 129.1686 0001449  91.7080 268.4078 15.08852639187782
STARLINK-3209           
1 49752U 21115AE  25117.31442548  .00001034  00000+0  83041-4 0  9991
2 49752  53.2168 119.3948 0001400  93.5651 266.5502 15.08835712187915
STARLINK-3200           
1 49753U 21115AF  25117.29414461  .00001400  00000+0  10604-3 0  9993
2 49753  53.2161 129.4740 0001410  88.5148 271.6006 15.08839577187770
STARLINK-3193           
1 49754U 21115AG  25117.31715508  .00000863  00000+0  72328-4 0  9997
2 49754  53.2168 119.4769 0001627  67.3017 292.8147 15.08840947187918
STARLINK-3210           
1 49755U 21115AH  25117.30615052 -.00000597  00000+0 -19429-4 0  9999
2 49755  53.2159 129.4685 0001448  97.8262 262.2894 15.08852600187771
STARLINK-3207           
1 49756U 21115AJ  25117.32450319  .00000863  00000+0  72330-4 0  9999
2 49756  53.2163 119.3386 0001529  84.4866 275.6301 15.08841667187913
STARLINK-3197           
1 49757U 21115AK  25117.31810431  .00001804  00000+0  13140-3 0  9993
2 49757  53.2164 119.3761 0001164  91.1714 268.9412 15.08840554187916
STARLINK-3194           
1 49758U 21115AL  25117.26562439  .00000298  00000+0  36806-4 0  9991
2 49758  53.2168 119.6039 0001409  90.3405 269.7749 15.08838925187902
STARLINK-3204           
1 49759U 21115AM  25117.32082531  .00001710  00000+0  12549-3 0  9996
2 49759  53.2162 119.3560 0001134  81.5285 278.5836 15.08839502187914
STARLINK-3199           
1 49760U 21115AN  25117.27298174 -.00000389  00000+0 -63467-5 0  9994
2 49760  53.2165 119.5690 0001365  88.6209 271.4940 15.08838403187912
STARLINK-3203           
1 49761U 21115AP  25117.32818024  .00000714  00000+0  62919-4 0  9993
2 49761  53.2167 119.3224 0001459  84.6422 275.4737 15.08841920187919
